STARLINK-36621          
1 67561U 26016A   26053.73417227  .00198189  00000+0  12971-2 0  9996
2 67561  97.2827 113.4007 0002176  87.4613 272.6901 15.75222856  4445
STARLINK-36398          
1 67562U 26016B   26054.05921679  .00366096  00000+0  23367-2 0  9999
2 67562  97.2840 113.7222 0001755  88.1420 272.0046 15.75337115  4493
STARLINK-36403          
1 67563U 26016C   26054.16668981  .00000044  00000+0  11680-5 0  9992
2 67563  97.2843 113.9534 0001341  94.9115  62.2190 15.75153041  5812
STARLINK-36593          
1 67564U 26016D   26054.08145377  .00260557  00000+0  16865-2 0  9997
2 67564  97.2845 113.8485 0001715  67.7340 292.4106 15.75306361  4506
STARLINK-35725          
1 67565U 26016E   26054.10297895  .00214456  00000+0  13984-2 0  9990
2 67565  97.2851 113.8175 0001149 101.9324 258.2070 15.75263278  4503
STARLINK-36394          
1 67566U 26016F   26054.10474401  .00133794  00000+0  88142-3 0  9995
2 67566  97.2851 113.8123 0001334  65.7484 294.3921 15.75255042  4503
STARLINK-36352          
1 67567U 26016G   26054.16668981  .00021734  00000+0  14647-3 0  9999
2 67567  97.2843 113.9649 0000593  89.5074 101.6139 15.75149148  5718
STARLINK-36435          
1 67568U 26016H   26053.61816991  .00531051  00000+0  26160-2 0  9995
2 67568  97.2845 113.4031 0004047 339.2977  20.8126 15.80747366  4434
STARLINK-36575          
1 67569U 26016J   26054.05995458  .00317540  00000+0  15869-2 0  9990
2 67569  97.2835 113.8773 0001688  79.8746 280.2713 15.80981120  4500
STARLINK-36562          
1 67570U 26016K   26054.16668981  .00037821  00000+0  25379-3 0  9991
2 67570  97.2840 113.9715 0001292  77.5130 123.6055 15.75146692  5712
STARLINK-36578          
1 67571U 26016L   26054.04333360  .00163298  00000+0  10723-2 0  9993
2 67571  97.2837 113.7438 0001416 111.6155 248.5261 15.75245450  4496
STARLINK-36350          
1 67572U 26016M   26054.09911617  .00129834  00000+0  85881-3 0  9992
2 67572  97.2857 113.8198 0001433  88.5111 271.6319 15.75172380  4500
