CCSDS_OMM_VERS = 2.0
CREATION_DATE  = 
ORIGINATOR     = 

OBJECT_NAME    = STARLINK-36621
OBJECT_ID      = 2026-016A
CENTER_NAME    = EARTH
REF_FRAME      = TEME
TIME_SYSTEM    = UTC
MEAN_ELEMENT_THEORY = SGP/SGP4

EPOCH          = 2026-02-22T17:37:12.484128
MEAN_MOTION    = 15.75222856
ECCENTRICITY   = .0002176
INCLINATION    = 97.2827
RA_OF_ASC_NODE = 113.4007
ARG_OF_PERICENTER = 87.4613
MEAN_ANOMALY   = 272.6901

EPHEMERIS_TYPE = 0
CLASSIFICATION_TYPE = U
NORAD_CAT_ID   = 67561
ELEMENT_SET_NO = 999
REV_AT_EPOCH   = 444
BSTAR          = .12971281E-2
MEAN_MOTION_DOT = .198189E-2
MEAN_MOTION_DDOT = 0

CCSDS_OMM_VERS = 2.0
CREATION_DATE  = 
ORIGINATOR     = 

OBJECT_NAME    = STARLINK-36398
OBJECT_ID      = 2026-016B
CENTER_NAME    = EARTH
REF_FRAME      = TEME
TIME_SYSTEM    = UTC
MEAN_ELEMENT_THEORY = SGP/SGP4

EPOCH          = 2026-02-23T01:25:16.330656
MEAN_MOTION    = 15.75337115
ECCENTRICITY   = .0001755
INCLINATION    = 97.2840
RA_OF_ASC_NODE = 113.7222
ARG_OF_PERICENTER = 88.1420
MEAN_ANOMALY   = 272.0046

EPHEMERIS_TYPE = 0
CLASSIFICATION_TYPE = U
NORAD_CAT_ID   = 67562
ELEMENT_SET_NO = 999
REV_AT_EPOCH   = 449
BSTAR          = .23367E-2
MEAN_MOTION_DOT = .366096E-2
MEAN_MOTION_DDOT = 0

CCSDS_OMM_VERS = 2.0
CREATION_DATE  = 
ORIGINATOR     = 

OBJECT_NAME    = STARLINK-36403
OBJECT_ID      = 2026-016C
CENTER_NAME    = EARTH
REF_FRAME      = TEME
TIME_SYSTEM    = UTC
MEAN_ELEMENT_THEORY = SGP/SGP4

EPOCH          = 2026-02-23T04:00:01.999584
MEAN_MOTION    = 15.75153041
ECCENTRICITY   = .0001341
INCLINATION    = 97.2843
RA_OF_ASC_NODE = 113.9534
ARG_OF_PERICENTER = 94.9115
MEAN_ANOMALY   = 62.2190

EPHEMERIS_TYPE = 0
CLASSIFICATION_TYPE = U
NORAD_CAT_ID   = 67563
ELEMENT_SET_NO = 999
REV_AT_EPOCH   = 581
BSTAR          = .1168E-5
MEAN_MOTION_DOT = .44E-6
MEAN_MOTION_DDOT = 0

CCSDS_OMM_VERS = 2.0
CREATION_DATE  = 
ORIGINATOR     = 

OBJECT_NAME    = STARLINK-36593
OBJECT_ID      = 2026-016D
CENTER_NAME    = EARTH
REF_FRAME      = TEME
TIME_SYSTEM    = UTC
MEAN_ELEMENT_THEORY = SGP/SGP4

EPOCH          = 2026-02-23T01:57:17.605728
MEAN_MOTION    = 15.75306361
ECCENTRICITY   = .0001715
INCLINATION    = 97.2845
RA_OF_ASC_NODE = 113.8485
ARG_OF_PERICENTER = 67.7340
MEAN_ANOMALY   = 292.4106

EPHEMERIS_TYPE = 0
CLASSIFICATION_TYPE = U
NORAD_CAT_ID   = 67564
ELEMENT_SET_NO = 999
REV_AT_EPOCH   = 450
BSTAR          = .16865E-2
MEAN_MOTION_DOT = .260557E-2
MEAN_MOTION_DDOT = 0

CCSDS_OMM_VERS = 2.0
CREATION_DATE  = 
ORIGINATOR     = 

OBJECT_NAME    = STARLINK-35725
OBJECT_ID      = 2026-016E
CENTER_NAME    = EARTH
REF_FRAME      = TEME
TIME_SYSTEM    = UTC
MEAN_ELEMENT_THEORY = SGP/SGP4

EPOCH          = 2026-02-23T02:28:17.381280
MEAN_MOTION    = 15.75263278
ECCENTRICITY   = .0001149
INCLINATION    = 97.2851
RA_OF_ASC_NODE = 113.8175
ARG_OF_PERICENTER = 101.9324
MEAN_ANOMALY   = 258.2070

EPHEMERIS_TYPE = 0
CLASSIFICATION_TYPE = U
NORAD_CAT_ID   = 67565
ELEMENT_SET_NO = 999
REV_AT_EPOCH   = 450
BSTAR          = .13984E-2
MEAN_MOTION_DOT = .214456E-2
MEAN_MOTION_DDOT = 0

CCSDS_OMM_VERS = 2.0
CREATION_DATE  = 
ORIGINATOR     = 

OBJECT_NAME    = STARLINK-36394
OBJECT_ID      = 2026-016F
CENTER_NAME    = EARTH
REF_FRAME      = TEME
TIME_SYSTEM    = UTC
MEAN_ELEMENT_THEORY = SGP/SGP4

EPOCH          = 2026-02-23T02:30:49.882464
MEAN_MOTION    = 15.75255042
ECCENTRICITY   = .0001334
INCLINATION    = 97.2851
RA_OF_ASC_NODE = 113.8123
ARG_OF_PERICENTER = 65.7484
MEAN_ANOMALY   = 294.3921

EPHEMERIS_TYPE = 0
CLASSIFICATION_TYPE = U
NORAD_CAT_ID   = 67566
ELEMENT_SET_NO = 999
REV_AT_EPOCH   = 450
BSTAR          = .88142E-3
MEAN_MOTION_DOT = .133794E-2
MEAN_MOTION_DDOT = 0

CCSDS_OMM_VERS = 2.0
CREATION_DATE  = 
ORIGINATOR     = 

OBJECT_NAME    = STARLINK-36352
OBJECT_ID      = 2026-016G
CENTER_NAME    = EARTH
REF_FRAME      = TEME
TIME_SYSTEM    = UTC
MEAN_ELEMENT_THEORY = SGP/SGP4

EPOCH          = 2026-02-23T04:00:01.999584
MEAN_MOTION    = 15.75149148
ECCENTRICITY   = .0000593
INCLINATION    = 97.2843
RA_OF_ASC_NODE = 113.9649
ARG_OF_PERICENTER = 89.5074
MEAN_ANOMALY   = 101.6139

EPHEMERIS_TYPE = 0
CLASSIFICATION_TYPE = U
NORAD_CAT_ID   = 67567
ELEMENT_SET_NO = 999
REV_AT_EPOCH   = 571
BSTAR          = .14647E-3
MEAN_MOTION_DOT = .21734E-3
MEAN_MOTION_DDOT = 0

CCSDS_OMM_VERS = 2.0
CREATION_DATE  = 
ORIGINATOR     = 

OBJECT_NAME    = STARLINK-36435
OBJECT_ID      = 2026-016H
CENTER_NAME    = EARTH
REF_FRAME      = TEME
TIME_SYSTEM    = UTC
MEAN_ELEMENT_THEORY = SGP/SGP4

EPOCH          = 2026-02-22T14:50:09.880224
MEAN_MOTION    = 15.80747366
ECCENTRICITY   = .0004047
INCLINATION    = 97.2845
RA_OF_ASC_NODE = 113.4031
ARG_OF_PERICENTER = 339.2977
MEAN_ANOMALY   = 20.8126

EPHEMERIS_TYPE = 0
CLASSIFICATION_TYPE = U
NORAD_CAT_ID   = 67568
ELEMENT_SET_NO = 999
REV_AT_EPOCH   = 443
BSTAR          = .2616E-2
MEAN_MOTION_DOT = .531051E-2
MEAN_MOTION_DDOT = 0

CCSDS_OMM_VERS = 2.0
CREATION_DATE  = 
ORIGINATOR     = 

OBJECT_NAME    = STARLINK-36575
OBJECT_ID      = 2026-016J
CENTER_NAME    = EARTH
REF_FRAME      = TEME
TIME_SYSTEM    = UTC
MEAN_ELEMENT_THEORY = SGP/SGP4

EPOCH          = 2026-02-23T01:26:20.075712
MEAN_MOTION    = 15.80981120
ECCENTRICITY   = .0001688
INCLINATION    = 97.2835
RA_OF_ASC_NODE = 113.8773
ARG_OF_PERICENTER = 79.8746
MEAN_ANOMALY   = 280.2713

EPHEMERIS_TYPE = 0
CLASSIFICATION_TYPE = U
NORAD_CAT_ID   = 67569
ELEMENT_SET_NO = 999
REV_AT_EPOCH   = 450
BSTAR          = .15869E-2
MEAN_MOTION_DOT = .31754E-2
MEAN_MOTION_DDOT = 0

CCSDS_OMM_VERS = 2.0
CREATION_DATE  = 
ORIGINATOR     = 

OBJECT_NAME    = STARLINK-36562
OBJECT_ID      = 2026-016K
CENTER_NAME    = EARTH
REF_FRAME      = TEME
TIME_SYSTEM    = UTC
MEAN_ELEMENT_THEORY = SGP/SGP4

EPOCH          = 2026-02-23T04:00:01.999584
MEAN_MOTION    = 15.75146692
ECCENTRICITY   = .0001292
INCLINATION    = 97.2840
RA_OF_ASC_NODE = 113.9715
ARG_OF_PERICENTER = 77.5130
MEAN_ANOMALY   = 123.6055

EPHEMERIS_TYPE = 0
CLASSIFICATION_TYPE = U
NORAD_CAT_ID   = 67570
ELEMENT_SET_NO = 999
REV_AT_EPOCH   = 571
BSTAR          = .25379E-3
MEAN_MOTION_DOT = .37821E-3
MEAN_MOTION_DDOT = 0

CCSDS_OMM_VERS = 2.0
CREATION_DATE  = 
ORIGINATOR     = 

OBJECT_NAME    = STARLINK-36578
OBJECT_ID      = 2026-016L
CENTER_NAME    = EARTH
REF_FRAME      = TEME
TIME_SYSTEM    = UTC
MEAN_ELEMENT_THEORY = SGP/SGP4

EPOCH          = 2026-02-23T01:02:24.023040
MEAN_MOTION    = 15.75245450
ECCENTRICITY   = .0001416
INCLINATION    = 97.2837
RA_OF_ASC_NODE = 113.7438
ARG_OF_PERICENTER = 111.6155
MEAN_ANOMALY   = 248.5261

EPHEMERIS_TYPE = 0
CLASSIFICATION_TYPE = U
NORAD_CAT_ID   = 67571
ELEMENT_SET_NO = 999
REV_AT_EPOCH   = 449
BSTAR          = .10723E-2
MEAN_MOTION_DOT = .163298E-2
MEAN_MOTION_DDOT = 0

CCSDS_OMM_VERS = 2.0
CREATION_DATE  = 
ORIGINATOR     = 

OBJECT_NAME    = STARLINK-36350
OBJECT_ID      = 2026-016M
CENTER_NAME    = EARTH
REF_FRAME      = TEME
TIME_SYSTEM    = UTC
MEAN_ELEMENT_THEORY = SGP/SGP4

EPOCH          = 2026-02-23T02:22:43.637088
MEAN_MOTION    = 15.75172380
ECCENTRICITY   = .0001433
INCLINATION    = 97.2857
RA_OF_ASC_NODE = 113.8198
ARG_OF_PERICENTER = 88.5111
MEAN_ANOMALY   = 271.6319

EPHEMERIS_TYPE = 0
CLASSIFICATION_TYPE = U
NORAD_CAT_ID   = 67572
ELEMENT_SET_NO = 999
REV_AT_EPOCH   = 450
BSTAR          = .85881E-3
MEAN_MOTION_DOT = .129834E-2
MEAN_MOTION_DDOT = 0

